*******************************************************************************
Ephemeris / WWW_USER Mon Mar 24 11:07:34 2025 Pasadena, USA      / Horizons    
*******************************************************************************
Target body name: (2018 VA2)                      {source: JPL#8}
Center body name: Earth (399)                     {source: DE441}
Center-site name: Mauna Kea
*******************************************************************************
Start time      : A.D. 2018-Aug-09 05:04:00.0000 UT      
Stop  time      : A.D. 2018-Aug-09 15:50:00.0000 UT      
Step-size       : 1 minutes
*******************************************************************************
Target pole/equ : undefined
Target radii    : undefined                                                    
Center geodetic : 204.5278, 19.8260847, 4.21024   {E-lon(deg),Lat(deg),Alt(km)}
Center cylindric: 204.5278, 6006.35451, 2151.0229 {E-lon(deg),Dxy(km),Dz(km)}
Center pole/equ : ITRF93                          {East-longitude positive}
Center radii    : 6378.137, 6378.137, 6356.752 km {Equator_a, b, pole_c}       
Target primary  : Sun
Vis. interferer : MOON (R_eq= 1737.400) km        {source: DE441}
Rel. light bend : Sun                             {source: DE441}
Rel. lght bnd GM: 1.3271E+11 km^3/s^2                                          
Small-body perts: Yes                             {source: SB441-N16}
Atmos refraction: NO (AIRLESS)
RA format       : HMS
Time format     : CAL 
Calendar mode   : Mixed Julian/Gregorian
RTS-only print  : NO       
EOP file        : eop.250321.p250617                                           
EOP coverage    : DATA-BASED 1962-JAN-20 TO 2025-MAR-21. PREDICTS-> 2025-JUN-16
Units conversion: 1 au= 149597870.700 km, c= 299792.458 km/s, 1 day= 86400.0 s 
Table cut-offs 1: Elevation (-90.0deg=NO ),Airmass (>38.000=NO), Daylight (YES)
Table cut-offs 2: Solar elongation (  0.0,180.0=NO ),Local Hour Angle( 0.0=NO )
Table cut-offs 3: RA/DEC angular rate (     0.0=NO )                           
*******************************************************************************
Initial IAU76/J2000 heliocentric ecliptic osculating elements (au, days, deg.):
  EPOCH=  2458428.5 ! 2018-Nov-06.00 (TDB)         Residual RMS= .39675        
   EC= .3242664208426159   QR= .935847567628844    TP= 2458464.9625425939      
   OM= 226.0068906557846   W=  220.7446970607937   IN= 3.947636678272312       
  Equivalent ICRF heliocentric cartesian coordinates (au, au/d):
   X= 7.314601530918681E-01  Y= 6.289465658343808E-01  Z= 2.763726037901882E-01
  VX=-1.554701504922309E-02 VY= 1.109318211007817E-02 VZ= 3.366540373951610E-03
Asteroid physical parameters (km, seconds, rotational period in hours):        
   GM= n.a.                RAD= n.a.               ROTPER= n.a.                
   H= 27.08                G= .150                 B-V= n.a.                   
                           ALBEDO= n.a.            STYP= n.a.                  
*******************************************************************************
 Date__(UT)__HR:MN     R.A._________(ICRF)_________DEC
******************************************************
$$SOE
 2018-Aug-09 15:19 Nm  00 14 38.242671 +12 13 07.31297
 2018-Aug-09 15:20 Nm  00 14 38.281918 +12 13 07.87525
 2018-Aug-09 15:21 Nm  00 14 38.321174 +12 13 08.43747
 2018-Aug-09 15:22 Nm  00 14 38.360440 +12 13 08.99963
 2018-Aug-09 15:23 Nm  00 14 38.399714 +12 13 09.56174
 2018-Aug-09 15:24 Nm  00 14 38.438998 +12 13 10.12379
 2018-Aug-09 15:25 Nm  00 14 38.478291 +12 13 10.68579
 2018-Aug-09 15:26 Nm  00 14 38.517593 +12 13 11.24774
 2018-Aug-09 15:27 Nm  00 14 38.556904 +12 13 11.80963
 2018-Aug-09 15:28 Nm  00 14 38.596225 +12 13 12.37146
 2018-Aug-09 15:29 Nm  00 14 38.635556 +12 13 12.93324
 2018-Aug-09 15:30 Nm  00 14 38.674896 +12 13 13.49497
 2018-Aug-09 15:31 Nm  00 14 38.714246 +12 13 14.05664
 2018-Aug-09 15:32 Nm  00 14 38.753606 +12 13 14.61826
 2018-Aug-09 15:33 Nm  00 14 38.792975 +12 13 15.17982
 2018-Aug-09 15:34 Nm  00 14 38.832355 +12 13 15.74133
 2018-Aug-09 15:35 Nm  00 14 38.871744 +12 13 16.30279
 2018-Aug-09 15:36 Nm  00 14 38.911144 +12 13 16.86420
 2018-Aug-09 15:37 Nm  00 14 38.950554 +12 13 17.42555
 2018-Aug-09 15:38 Cm  00 14 38.989974 +12 13 17.98684
 2018-Aug-09 15:39 Cm  00 14 39.029404 +12 13 18.54809
 2018-Aug-09 15:40 Cm  00 14 39.068844 +12 13 19.10928
 2018-Aug-09 15:41 Cm  00 14 39.108295 +12 13 19.67042
 2018-Aug-09 15:42 Cm  00 14 39.147757 +12 13 20.23151
 2018-Aug-09 15:43 Cm  00 14 39.187229 +12 13 20.79254
 2018-Aug-09 15:44 Cm  00 14 39.226712 +12 13 21.35352
 2018-Aug-09 15:45 Cm  00 14 39.266206 +12 13 21.91445
 2018-Aug-09 15:46 Cm  00 14 39.305710 +12 13 22.47533
 2018-Aug-09 15:47 Cm  00 14 39.345225 +12 13 23.03616
 2018-Aug-09 15:48 Cm  00 14 39.384751 +12 13 23.59693
 2018-Aug-09 15:49 Cm  00 14 39.424288 +12 13 24.15765
 2018-Aug-09 15:50 Cm  00 14 39.463837 +12 13 24.71832
